[{"OBJECT_NAME":"STARLINK-11114 [DTC]","OBJECT_ID":"2024-091E","EPOCH":"2026-03-09T15:17:17.709792","MEAN_MOTION":15.69693044,"ECCENTRICITY":0.0001093,"INCLINATION":53.1592,"RA_OF_ASC_NODE":206.6509,"ARG_OF_PERICENTER":44.8861,"MEAN_ANOMALY":315.2245,"EPHEMERIS_TYPE":0,"CLASSIFICATION_TYPE":"U","NORAD_CAT_ID":59757,"ELEMENT_SET_NO":999,"REV_AT_EPOCH":10550,"BSTAR":1.3957e-6,"MEAN_MOTION_DOT":-4.19e-6,"MEAN_MOTION_DDOT":0},{"OBJECT_NAME":"OBJECT E","OBJECT_ID":"2021-035E","EPOCH":"2026-02-24T23:27:52.334784","MEAN_MOTION":15.69205353,"ECCENTRICITY":0.0007182,"INCLINATION":41.4547,"RA_OF_ASC_NODE":257.9148,"ARG_OF_PERICENTER":354.279,"MEAN_ANOMALY":5.7969,"EPHEMERIS_TYPE":0,"CLASSIFICATION_TYPE":"U","NORAD_CAT_ID":63523,"ELEMENT_SET_NO":999,"REV_AT_EPOCH":5075,"BSTAR":0.00060614223,"MEAN_MOTION_DOT":0.00073106,"MEAN_MOTION_DDOT":0}]
